{
  "systemName": "Procedural-Reference",
  "generationModel": {
    "procedural": true,
    "multiplicityDistribution": [
      {
        "stars": 1,
        "probability": 0.5,
        "label": "single"
      },
      {
        "stars": 2,
        "probability": 0.4,
        "label": "binary"
      },
      {
        "stars": 3,
        "probability": 0.1,
        "label": "triple"
      }
    ],
    "stellarImfDistribution": [
      {
        "spectralClass": "M",
        "probability": 0.76
      },
      {
        "spectralClass": "K",
        "probability": 0.12
      },
      {
        "spectralClass": "G",
        "probability": 0.07
      },
      {
        "spectralClass": "F",
        "probability": 0.03
      },
      {
        "spectralClass": "A",
        "probability": 0.009
      },
      {
        "spectralClass": "B",
        "probability": 0.0009
      },
      {
        "spectralClass": "O",
        "probability": 0.0001
      }
    ],
    "planetTypeDistribution": [
      {
        "type": "telluric",
        "probability": 0.42
      },
      {
        "type": "super-earth",
        "probability": 0.32
      },
      {
        "type": "mini-neptune",
        "probability": 0.15
      },
      {
        "type": "neptune",
        "probability": 0.09
      },
      {
        "type": "gas-giant",
        "probability": 0.02
      }
    ]
  },
  "stellarSystem": {
    "multiplicity": "binary",
    "stars": [
      {
        "name": "Procedural-Reference A",
        "spectralType": "M8V",
        "massSolar": 0.18450150114889075,
        "luminositySolar": 0.004715498546215792,
        "temperatureK": 2973.7760855438733,
        "radiusSolar": 0.2587020816144116
      },
      {
        "name": "Companion-1",
        "spectralType": "M5V",
        "massSolar": 0.08,
        "luminositySolar": 0.0006899773051727145,
        "temperatureK": 2569.206600903598,
        "radiusSolar": 0.13257816069359946,
        "orbit": {
          "semiMajorAxisAU": 1.1801246180012823,
          "eccentricity": 0.2811350942705758,
          "configuration": "primary-centered"
        }
      }
    ]
  },
  "star": {
    "name": "Procedural-Reference A",
    "spectralType": "M8V",
    "massSolar": 0.18450150114889075,
    "luminositySolar": 0.004715498546215792,
    "temperatureK": 2973.7760855438733,
    "radiusSolar": 0.2587020816144116
  },
  "stars": [
    {
      "name": "Procedural-Reference A",
      "spectralType": "M8V",
      "massSolar": 0.18450150114889075,
      "luminositySolar": 0.004715498546215792,
      "temperatureK": 2973.7760855438733,
      "radiusSolar": 0.2587020816144116
    },
    {
      "name": "Companion-1",
      "spectralType": "M5V",
      "massSolar": 0.08,
      "luminositySolar": 0.0006899773051727145,
      "temperatureK": 2569.206600903598,
      "radiusSolar": 0.13257816069359946,
      "orbit": {
        "semiMajorAxisAU": 1.1801246180012823,
        "eccentricity": 0.2811350942705758,
        "configuration": "primary-centered"
      }
    }
  ],
  "habitableZone": {
    "innerAU": 0.06547378758095619,
    "outerAU": 0.09432479561775728
  },
  "stability": {
    "primaryOrbitLimitAU": 0.22933108879362232
  },
  "planets": [
    {
      "name": "Ardor",
      "type": "super-earth",
      "massEarth": 3.349527152208611,
      "radiusEarth": 1.9,
      "densityGcm3": 2.973276373804621,
      "semiMajorAxisAU": 0.224425409514505,
      "eccentricity": 0.011592521544127304,
      "atmosphere": [
        {
          "species": "N2",
          "fraction": 0.8244049351230905
        },
        {
          "species": "H2O",
          "fraction": 0.17091344712951362
        },
        {
          "species": "CH4",
          "fraction": 0.004681617747395725
        }
      ],
      "estimatedTemperatureK": 153.77675301931777,
      "habitability": 0.037393108546212986,
      "initialMeanAnomaly": 3.497219555197698,
      "inclinationDeg": 4.1771065895445645,
      "longitudeAscendingNodeDeg": 88.26288250274956,
      "argumentOfPeriapsisDeg": 232.44998565874994
    }
  ],
  "minorBodies": {
    "asteroidBelts": [],
    "cometReservoirs": [
      {
        "name": "Outer Reservoir",
        "innerAU": 12,
        "outerAU": 48,
        "composition": [
          "ices",
          "dust",
          "organics"
        ]
      }
    ]
  }
}
